{"type": "FeatureCollection", "features": [ {"type": "Feature", "properties": {"norad_id": 35705, "name": "COSMOS 2251 DEB", "group": "cosmos-2251-debris", "lat": -14.399112714137425, "lon": -54.56364754203852, "alt_km": 671.7435879139675, "timestamp": "2025-12-20T07:33:51.209522+00:00", "meta": {"OBJECT_NAME": "COSMOS 2251 DEB", "OBJECT_ID": "1993-036AQA", "EPOCH": "2025-12-18T02:30:16.850016", "MEAN_MOTION": 14.7240967, "ECCENTRICITY": 0.0033127, "INCLINATION": 74.2733, "RA_OF_ASC_NODE": 125.5265, "ARG_OF_PERICENTER": 72.0768, "MEAN_ANOMALY": 288.4013, "EPHEMERIS_TYPE": 0, "CLASSIFICATION_TYPE": "U", "NORAD_CAT_ID": 35705, "ELEMENT_SET_NO": 999, "REV_AT_EPOCH": 86005, "BSTAR": 0.0020233771, "MEAN_MOTION_DOT": 0.00012927, "MEAN_MOTION_DDOT": 0}, "tle": {"line1": "1 35705U 93036AQA 25352.10436169  .00012927  00000+0  20234-2 0  9991", "line2": "2 35705  74.2733 125.5265 0033127  72.0768 288.4013 14.72409670860055"}}, "geometry": {"type": "Point", "coordinates": [-54.56364754203852, -14.399112714137425]}}, {"type": "Feature", "properties": {"norad_id": 35706, "name": "COSMOS 2251 DEB", "group": "cosmos-2251-debris", "lat": 66.72209488413976, "lon": 92.4999032667884, "alt_km": 779.1053468385126, "timestamp": "2025-12-20T07:33:51.209532+00:00", "meta": {"OBJECT_NAME": "COSMOS 2251 DEB", "OBJECT_ID": "1993-036AQB", "EPOCH": "2025-12-18T11:16:36.033600", "MEAN_MOTION": 13.65935388, "ECCENTRICITY": 0.03401259, "INCLINATION": 73.8894, "RA_OF_ASC_NODE": 53.3421, "ARG_OF_PERICENTER": 102.0554, "MEAN_ANOMALY": 261.8887, "EPHEMERIS_TYPE": 0, "CLASSIFICATION_TYPE": "U", "NORAD_CAT_ID": 35706, "ELEMENT_SET_NO": 999, "REV_AT_EPOCH": 62140, "BSTAR": 0.00059519362, "MEAN_MOTION_DOT": 7.07e-06, "MEAN_MOTION_DDOT": 0}, "tle": {"line1": "1 35706U 93036AQB 25352.46986150  .00000707  00000+0  59519-3 0  9993", "line2": "2 35706  73.8894  53.3421 0340125 102.0554 261.8887 13.65935388621406"}}, "geometry": {"type": "Point", "coordinates": [92.4999032667884, 66.72209488413976]}}, {"type": "Feature", "properties": {"norad_id": 35711, "name": "COSMOS 2251 DEB", "group": "cosmos-2251-debris", "lat": -60.62280640458548, "lon": 175.38363107257538, "alt_km": 628.2748519741535, "timestamp": "2025-12-20T07:33:51.209542+00:00", "meta": {"OBJECT_NAME": "COSMOS 2251 DEB", "OBJECT_ID": "1993-036AQG", "EPOCH": "2025-12-18T08:17:23.762688", "MEAN_MOTION": 14.63815796, "ECCENTRICITY": 0.00854507, "INCLINATION": 74.0458, "RA_OF_ASC_NODE": 209.7036, "ARG_OF_PERICENTER": 309.5008, "MEAN_ANOMALY": 49.8625, "EPHEMERIS_TYPE": 0, "CLASSIFICATION_TYPE": "U", "NORAD_CAT_ID": 35711, "ELEMENT_SET_NO": 999, "REV_AT_EPOCH": 87853, "BSTAR": 0.00017154859, "MEAN_MOTION_DOT": 9.1e-06, "MEAN_MOTION_DDOT": 0}, "tle": {"line1": "1 35711U 93036AQG 25352.34541392  .00000910  00000+0  17155-3 0  9997", "line2": "2 35711  74.0458 209.7036 0085450 309.5008  49.8625 14.63815796878536"}}, "geometry": {"type": "Point", "coordinates": [175.38363107257538, -60.62280640458548]}}, {"type": "Feature", "properties": {"norad_id": 35716, "name": "COSMOS 2251 DEB", "group": "cosmos-2251-debris", "lat": -73.79995188249019, "lon": 98.5355867502058, "alt_km": 716.9577562740405, "timestamp": "2025-12-20T07:33:51.209552+00:00", "meta": {"OBJECT_NAME": "COSMOS 2251 DEB", "OBJECT_ID": "1993-036AQM", "EPOCH": "2025-12-18T21:43:46.154784", "MEAN_MOTION": 14.60092925, "ECCENTRICITY": 0.00890052, "INCLINATION": 73.992, "RA_OF_ASC_NODE": 182.4048, "ARG_OF_PERICENTER": 21.7763, "MEAN_ANOMALY": 44.4198, "EPHEMERIS_TYPE": 0, "CLASSIFICATION_TYPE": "U", "NORAD_CAT_ID": 35716, "ELEMENT_SET_NO": 999, "REV_AT_EPOCH": 87717, "BSTAR": 6.7298004e-05, "MEAN_MOTION_DOT": 3.09e-06, "MEAN_MOTION_DDOT": 0}, "tle": {"line1": "1 35716U 93036AQM 25352.90539531  .00000309  00000+0  67298-4 0  9992", "line2": "2 35716  73.9920 182.4048 0089005  21.7763  44.4198 14.60092925877177"}}, "geometry": {"type": "Point", "coordinates": [98.5355867502058, -73.79995188249019]}}, {"type": "Feature", "properties": {"norad_id": 35717, "name": "COSMOS 2251 DEB", "group": "cosmos-2251-debris", "lat": 4.2956079857100775, "lon": 22.417155149071665, "alt_km": 787.8466615376183, "timestamp": "2025-12-20T07:33:51.209562+00:00", "meta": {"OBJECT_NAME": "COSMOS 2251 DEB", "OBJECT_ID": "1993-036AQN", "EPOCH": "2025-12-15T21:36:31.335552", "MEAN_MOTION": 14.38515087, "ECCENTRICITY": 0.00772191, "INCLINATION": 74.1598, "RA_OF_ASC_NODE": 211.7132, "ARG_OF_PERICENTER": 70.2705, "MEAN_ANOMALY": 290.6758, "EPHEMERIS_TYPE": 0, "CLASSIFICATION_TYPE": "U", "NORAD_CAT_ID": 35717, "ELEMENT_SET_NO": 999, "REV_AT_EPOCH": 74145, "BSTAR": 0.0007891897, "MEAN_MOTION_DOT": 2.473e-05, "MEAN_MOTION_DDOT": 0}, "tle": {"line1": "1 35717U 93036AQN 25349.90036268  .00002473  00000+0  78919-3 0  9993", "line2": "2 35717  74.1598 211.7132 0077219  70.2705 290.6758 14.38515087741453"}}, "geometry": {"type": "Point", "coordinates": [22.417155149071665, 4.2956079857100775]}}, {"type": "Feature", "properties": {"norad_id": 35718, "name": "COSMOS 2251 DEB", "group": "cosmos-2251-debris", "lat": 20.229406325697063, "lon": 121.3687199704697, "alt_km": 670.4268344087095, "timestamp": "2025-12-20T07:33:51.209573+00:00", "meta": {"OBJECT_NAME": "COSMOS 2251 DEB", "OBJECT_ID": "1993-036AQP", "EPOCH": "2025-12-17T02:38:13.400448", "MEAN_MOTION": 14.68736376, "ECCENTRICITY": 0.00104417, "INCLINATION": 74.0312, "RA_OF_ASC_NODE": 121.5128, "ARG_OF_PERICENTER": 170.1123, "MEAN_ANOMALY": 190.0255, "EPHEMERIS_TYPE": 0, "CLASSIFICATION_TYPE": "U", "NORAD_CAT_ID": 35718, "ELEMENT_SET_NO": 999, "REV_AT_EPOCH": 65904, "BSTAR": 0.0013106326, "MEAN_MOTION_DOT": 7.622e-05, "MEAN_MOTION_DDOT": 0}, "tle": {"line1": "1 35718U 93036AQP 25351.10987732  .00007622  00000+0  13106-2 0  9997", "line2": "2 35718  74.0312 121.5128 0010441 170.1123 190.0255 14.68736376659045"}}, "geometry": {"type": "Point", "coordinates": [121.3687199704697, 20.229406325697063]}}, {"type": "Feature", "properties": {"norad_id": 35721, "name": "COSMOS 2251 DEB", "group": "cosmos-2251-debris", "lat": -5.574183282379655, "lon": -14.594435776724424, "alt_km": 835.9751147128554, "timestamp": "2025-12-20T07:33:51.209582+00:00", "meta": {"OBJECT_NAME": "COSMOS 2251 DEB", "OBJECT_ID": "1993-036AQS", "EPOCH": "2025-12-09T19:36:39.465216", "MEAN_MOTION": 14.34317214, "ECCENTRICITY": 0.01465875, "INCLINATION": 73.9489, "RA_OF_ASC_NODE": 183.1196, "ARG_OF_PERICENTER": 330.1589, "MEAN_ANOMALY": 29.126, "EPHEMERIS_TYPE": 0, "CLASSIFICATION_TYPE": "U", "NORAD_CAT_ID": 35721, "ELEMENT_SET_NO": 999, "REV_AT_EPOCH": 57747, "BSTAR": 0.0018396061, "MEAN_MOTION_DOT": 5.808e-05, "MEAN_MOTION_DDOT": 0}, "tle": {"line1": "1 35721U 93036AQS 25343.81712344  .00005808  00000+0  18396-2 0  9995", "line2": "2 35721  73.9489 183.1196 0146587 330.1589  29.1260 14.34317214577479"}}, "geometry": {"type": "Point", "coordinates": [-14.594435776724424, -5.574183282379655]}}, {"type": "Feature", "properties": {"norad_id": 35724, "name": "COSMOS 2251 DEB", "group": "cosmos-2251-debris", "lat": 54.193958936667194, "lon": -48.3520345492976, "alt_km": 654.7712897529173, "timestamp": "2025-12-20T07:33:51.209592+00:00", "meta": {"OBJECT_NAME": "COSMOS 2251 DEB", "OBJECT_ID": "1993-036AQV", "EPOCH": "2025-12-18T02:36:52.242336", "MEAN_MOTION": 14.58211099, "ECCENTRICITY": 0.00589944, "INCLINATION": 74.0328, "RA_OF_ASC_NODE": 292.4608, "ARG_OF_PERICENTER": 84.5216, "MEAN_ANOMALY": 276.2674, "EPHEMERIS_TYPE": 0, "CLASSIFICATION_TYPE": "U", "NORAD_CAT_ID": 35724, "ELEMENT_SET_NO": 999, "REV_AT_EPOCH": 87607, "BSTAR": 0.00021824888, "MEAN_MOTION_DOT": 1.001e-05, "MEAN_MOTION_DDOT": 0}, "tle": {"line1": "1 35724U 93036AQV 25352.10893799  .00001001  00000+0  21825-3 0  9997", "line2": "2 35724  74.0328 292.4608 0058994  84.5216 276.2674 14.58211099876071"}}, "geometry": {"type": "Point", "coordinates": [-48.3520345492976, 54.193958936667194]}}, {"type": "Feature", "properties": {"norad_id": 35759, "name": "COSMOS 2251 DEB", "group": "cosmos-2251-debris", "lat": 72.01861069475144, "lon": -40.39622855083503, "alt_km": 711.9299203928922, "timestamp": "2025-12-20T07:33:51.209602+00:00", "meta": {"OBJECT_NAME": "COSMOS 2251 DEB", "OBJECT_ID": "1993-036ARD", "EPOCH": "2025-12-17T08:38:24.236736", "MEAN_MOTION": 14.6490617, "ECCENTRICITY": 0.00772003, "INCLINATION": 74.0368, "RA_OF_ASC_NODE": 207.1613, "ARG_OF_PERICENTER": 324.2826, "MEAN_ANOMALY": 35.319, "EPHEMERIS_TYPE": 0, "CLASSIFICATION_TYPE": "U", "NORAD_CAT_ID": 35759, "ELEMENT_SET_NO": 999, "REV_AT_EPOCH": 66203, "BSTAR": 0.00021011522, "MEAN_MOTION_DOT": 1.14e-05, "MEAN_MOTION_DDOT": 0}, "tle": {"line1": "1 35759U 93036ARD 25351.36000274  .00001140  00000+0  21012-3 0  9992", "line2": "2 35759  74.0368 207.1613 0077200 324.2826  35.3190 14.64906170662038"}}, "geometry": {"type": "Point", "coordinates": [-40.39622855083503, 72.01861069475144]}}, {"type": "Feature", "properties": {"norad_id": 35771, "name": "COSMOS 2251 DEB", "group": "cosmos-2251-debris", "lat": 34.862977515176226, "lon": 105.59903009179556, "alt_km": 841.1280526528262, "timestamp": "2025-12-20T07:33:51.209612+00:00", "meta": {"OBJECT_NAME": "COSMOS 2251 DEB", "OBJECT_ID": "1993-036ARR", "EPOCH": "2025-12-15T14:45:16.238592", "MEAN_MOTION": 14.13430046, "ECCENTRICITY": 0.02280549, "INCLINATION": 74.1561, "RA_OF_ASC_NODE": 305.27, "ARG_OF_PERICENTER": 242.9998, "MEAN_ANOMALY": 114.7698, "EPHEMERIS_TYPE": 0, "CLASSIFICATION_TYPE": "U", "NORAD_CAT_ID": 35771, "ELEMENT_SET_NO": 999, "REV_AT_EPOCH": 82901, "BSTAR": 0.0026764238, "MEAN_MOTION_DOT": 6.427e-05, "MEAN_MOTION_DDOT": 0}, "tle": {"line1": "1 35771U 93036ARR 25349.61477128  .00006427  00000+0  26764-2 0  9998", "line2": "2 35771  74.1561 305.2700 0228054 242.9998 114.7698 14.13430046829012"}}, "geometry": {"type": "Point", "coordinates": [105.59903009179556, 34.862977515176226]}}]}